{
    "links": {
        "self": "http://www.neowsapp.com/rest/v1/neo/3753657?api_key=iIulBulltgU6a56xZRHN4H3l9WmuAYTsLGpBGhQ2"
    },
    "id": "3753657",
    "neo_reference_id": "3753657",
    "name": "(2016 LO)",
    "designation": "2016 LO",
    "nasa_jpl_url": "http://ssd.jpl.nasa.gov/sbdb.cgi?sstr=3753657",
    "absolute_magnitude_h": 25.1,
    "estimated_diameter": {
        "kilometers": {
            "estimated_diameter_min": 0.0253837029,
            "estimated_diameter_max": 0.0567596853
        },
        "meters": {
            "estimated_diameter_min": 25.3837029364,
            "estimated_diameter_max": 56.7596852866
        },
        "miles": {
            "estimated_diameter_min": 0.0157726969,
            "estimated_diameter_max": 0.0352688224
        },
        "feet": {
            "estimated_diameter_min": 83.279867942,
            "estimated_diameter_max": 186.2194458756
        }
    },
    "is_potentially_hazardous_asteroid": false,
    "close_approach_data": [
        {
            "close_approach_date": "1999-11-12",
            "close_approach_date_full": "1999-Nov-12 04:38",
            "epoch_date_close_approach": 942381480000,
            "relative_velocity": {
                "kilometers_per_second": "9.5009305952",
                "kilometers_per_hour": "34203.3501426238",
                "miles_per_hour": "21252.6316483431"
            },
            "miss_distance": {
                "astronomical": "0.0819653451",
                "lunar": "31.8845192439",
                "kilometers": "12261841.040774937",
                "miles": "7619154.7178386506"
            },
            "orbiting_body": "Mars"
        },
        {
            "close_approach_date": "2016-06-06",
            "close_approach_date_full": "2016-Jun-06 05:51",
            "epoch_date_close_approach": 1465192260000,
            "relative_velocity": {
                "kilometers_per_second": "5.6304295317",
                "kilometers_per_hour": "20269.5463140746",
                "miles_per_hour": "12594.7078194315"
            },
            "miss_distance": {
                "astronomical": "0.0497528686",
                "lunar": "19.3538658854",
                "kilometers": "7442923.168949882",
                "miles": "4624818.0015250916"
            },
            "orbiting_body": "Earth"
        },
        {
            "close_approach_date": "2039-07-21",
            "close_approach_date_full": "2039-Jul-21 13:43",
            "epoch_date_close_approach": 2194868580000,
            "relative_velocity": {
                "kilometers_per_second": "18.5117401437",
                "kilometers_per_hour": "66642.2645172898",
                "miles_per_hour": "41408.9115274237"
            },
            "miss_distance": {
                "astronomical": "0.4725898293",
                "lunar": "183.8374435977",
                "kilometers": "70698431.846943591",
                "miles": "43929968.4899839158"
            },
            "orbiting_body": "Earth"
        },
        {
            "close_approach_date": "2068-05-28",
            "close_approach_date_full": "2068-May-28 23:19",
            "epoch_date_close_approach": 3105472740000,
            "relative_velocity": {
                "kilometers_per_second": "8.4955487022",
                "kilometers_per_hour": "30583.9753278898",
                "miles_per_hour": "19003.6928919324"
            },
            "miss_distance": {
                "astronomical": "0.0909307453",
                "lunar": "35.3720599217",
                "kilometers": "13603045.814392511",
                "miles": "8452540.7195422118"
            },
            "orbiting_body": "Mars"
        }
    ],
    "orbital_data": {
        "orbit_id": "11",
        "orbit_determination_date": "2017-04-06 08:25:39",
        "first_observation_date": "2016-06-02",
        "last_observation_date": "2016-07-07",
        "data_arc_in_days": 35,
        "observations_used": 57,
        "orbit_uncertainty": "7",
        "minimum_orbit_intersection": ".0476704",
        "jupiter_tisserand_invariant": "4.216",
        "epoch_osculation": "2459000.5",
        "eccentricity": ".3603747722460247",
        "semi_major_axis": "1.639016222964763",
        "inclination": "6.22768700735462",
        "ascending_node_longitude": "90.95594020229899",
        "orbital_period": "766.4314284733324",
        "perihelion_distance": "1.048356124906297",
        "perihelion_argument": "153.9346591440744",
        "aphelion_distance": "2.229676321023229",
        "perihelion_time": "2459067.953940508465",
        "mean_anomaly": "328.3162541606389",
        "mean_motion": ".4697093394474833",
        "equinox": "J2000",
        "orbit_class": {
            "orbit_class_type": "AMO",
            "orbit_class_description": "Near-Earth asteroid orbits similar to that of 1221 Amor",
            "orbit_class_range": "1.017 AU < q (perihelion) < 1.3 AU"
        }
    },
    "is_sentry_object": false
}